NORAD_CAT_ID,OBJECT_NAME,OBJECT_TYPE,EPOCH,MEAN_MOTION,ECCENTRICITY,INCLINATION,RA_OF_ASC_NODE,ARG_OF_PERICENTER,MEAN_ANOMALY,BSTAR,MEAN_MOTION_DOT,MEAN_MOTION_DDOT,TLE_LINE0,TLE_LINE1,TLE_LINE2,SEMIMAJOR_AXIS,PERIOD,APOGEE,PERIGEE,DECAYED
51993.0,STARLINK-3648,PAYLOAD,2024-04-07 06:38:08,15.08842664,0.0001334,53.2165,307.8864,86.0199,274.0945,0.00011642,1.566e-05,0.0,0 STARLINK-3648,1 51993U 22025AP  24098.27648890  .00001566  00000-0  11642-3 0  9990,2 51993  53.2165 307.8864 0001334  86.0199 274.0945 15.08842664115171,6917.872,95.437,540.66,538.814,0.0
51993.0,STARLINK-3648,PAYLOAD,2024-04-07 20:56:37,15.08838254,0.0001563,53.2176,305.2117,92.9554,267.1617,-0.00011161,-2.064e-05,0.0,0 STARLINK-3648,1 51993U 22025AP  24098.87265054 -.00002064  00000-0 -11161-3 0  9995,2 51993  53.2176 305.2117 0001563  92.9554 267.1617 15.08838254116373,6917.886,95.438,540.832,538.669,0.0
51993.0,STARLINK-3648,PAYLOAD,2024-04-08 06:28:55,15.08839615,0.0001445,53.2188,303.429,94.8835,265.2322,-9.7092e-05,-1.833e-05,0.0,0 STARLINK-3648,1 51993U 22025AP  24099.27009004 -.00001833  00000-0 -97092-4 0  9992,2 51993  53.2188 303.4290 0001445  94.8835 265.2322 15.08839615115328,6917.882,95.438,540.746,538.747,0.0
51993.0,STARLINK-3648,PAYLOAD,2024-04-08 23:58:10,15.08845246,0.0001395,53.2174,300.1567,92.4491,267.6661,0.00011985,1.62e-05,0.0,0 STARLINK-3648,1 51993U 22025AP  24099.99872861  .00001620  00000-0  11985-3 0  9998,2 51993  53.2174 300.1567 0001395  92.4491 267.6661 15.08845246115431,6917.864,95.437,540.694,538.764,0.0
51993.0,STARLINK-3648,PAYLOAD,2024-04-09 12:41:15,15.08838573,0.0001388,53.2178,297.7775,81.9698,278.1451,0.00012638,1.724e-05,0.0,0 STARLINK-3648,1 51993U 22025AP  24100.52865324  .00001724  00000-0  12638-3 0  9997,2 51993  53.2178 297.7775 0001388  81.9698 278.1451 15.08838573116622,6917.885,95.438,540.71,538.79,0.0
51993.0,STARLINK-3648,PAYLOAD,2024-04-10 06:10:30,15.08838951,0.0001309,53.2165,294.5058,81.4441,278.6699,9.846e-05,1.279e-05,0.0,0 STARLINK-3648,1 51993U 22025AP  24101.25729478  .00001279  00000-0  98460-4 0  9990,2 51993  53.2165 294.5058 0001309  81.4441 278.6699 15.08838951115629,6917.884,95.438,540.654,538.843,0.0
51993.0,STARLINK-3648,PAYLOAD,2024-04-10 20:28:57,15.08861197,0.0001261,53.218,291.8304,77.5635,282.5498,8.237e-05,1.024e-05,0.0,0 STARLINK-3648,1 51993U 22025AP  24101.85344271  .00001024  00000-0  82370-4 0  9991,2 51993  53.2180 291.8304 0001261  77.5635 282.5498 15.08861197116820,6917.816,95.436,540.553,538.808,0.0
51993.0,STARLINK-3648,PAYLOAD,2024-04-10 22:04:20,15.0885986,0.0001227,53.218,291.5316,82.7032,277.41,0.00028279,4.218e-05,0.0,0 STARLINK-3648,1 51993U 22025AP  24101.91968278  .00004218  00000-0  28279-3 0  9992,2 51993  53.2180 291.5316 0001227  82.7032 277.4100 15.08859860115726,6917.82,95.436,540.534,538.836,0.0
51993.0,STARLINK-3648,PAYLOAD,2024-04-11 06:01:16,15.0884726,0.0001409,53.2154,290.0452,80.8832,279.2319,0.00016598,2.355e-05,0.0,0 STARLINK-3648,1 51993U 22025AP  24102.25088829  .00002355  00000-0  16598-3 0  9996,2 51993  53.2154 290.0452 0001409  80.8832 279.2319 15.08847260116882,6917.858,95.437,540.698,538.748,0.0
51993.0,STARLINK-3648,PAYLOAD,2024-04-11 18:44:22,15.08840111,0.0001722,53.2173,287.666,90.2682,269.8507,8.5671e-05,1.076e-05,0.0,0 STARLINK-3648,1 51993U 22025AP  24102.78081315  .00001076  00000-0  85671-4 0  9995,2 51993  53.2173 287.6660 0001722  90.2682 269.8507 15.08840111116963,6917.88,95.438,540.936,538.554,0.0
51993.0,STARLINK-3648,PAYLOAD,2024-04-11 21:55:08,15.08839085,0.0001281,53.2179,287.07,95.097,265.0169,1.7829e-05,-4e-08,0.0,0 STARLINK-3648,1 51993U 22025AP  24102.91329287 -.00000004  00000-0  17829-4 0  9994,2 51993  53.2179 287.0700 0001281  95.0970 265.0169 15.08839085115870,6917.883,95.438,540.634,538.862,0.0
51993.0,STARLINK-3648,PAYLOAD,2024-04-12 12:13:36,15.08842284,0.0001527,53.2178,284.3937,94.0529,266.0638,1.8254e-05,3e-08,0.0,0 STARLINK-3648,1 51993U 22025AP  24103.50945262  .00000003  00000-0  18254-4 0  9998,2 51993  53.2178 284.3937 0001527  94.0529 266.0638 15.08842284115960,6917.873,95.437,540.795,538.682,0.0
51993.0,STARLINK-3648,PAYLOAD,2024-04-12 15:24:22,15.08843512,0.0001501,53.2167,283.7995,92.1003,268.0161,4.5701e-05,4.39e-06,0.0,0 STARLINK-3648,1 51993U 22025AP  24103.64193176  .00000439  00000-0  45701-4 0  9992,2 51993  53.2167 283.7995 0001501  92.1003 268.0161 15.08843512115983,6917.87,95.437,540.773,538.696,0.0
51993.0,STARLINK-3648,PAYLOAD,2024-04-13 18:25:56,15.08841076,0.0001308,53.2173,278.7446,87.8584,272.2558,0.00016515,2.342e-05,0.0,0 STARLINK-3648,1 51993U 22025AP  24104.76801531  .00002342  00000-0  16515-3 0  9992,2 51993  53.2173 278.7446 0001308  87.8584 272.2558 15.08841076117268,6917.877,95.437,540.647,538.837,0.0
51993.0,STARLINK-3648,PAYLOAD,2024-04-14 18:16:43,15.0884181,0.0001468,53.2178,274.2846,101.4377,258.678,0.00011361,1.521e-05,0.0,0 STARLINK-3648,1 51993U 22025AP  24105.76161597  .00001521  00000-0  11361-3 0  9996,2 51993  53.2178 274.2846 0001468 101.4377 258.6780 15.08841810116303,6917.875,95.437,540.755,538.724,0.0
51993.0,STARLINK-3648,PAYLOAD,2024-04-15 21:18:16,15.08849251,0.0001482,53.2182,269.2286,99.9545,260.1615,0.00019919,2.884e-05,0.0,0 STARLINK-3648,1 51993U 22025AP  24106.88769024  .00002884  00000-0  19919-3 0  9999,2 51993  53.2182 269.2286 0001482  99.9545 260.1615 15.08849251116474,6917.852,95.437,540.742,538.692,0.0
51993.0,STARLINK-3648,PAYLOAD,2024-04-16 03:39:49,15.08845575,0.0001484,53.2166,268.038,68.0113,292.1037,0.00032091,4.824e-05,0.0,0 STARLINK-3648,1 51993U 22025AP  24107.15265400  .00004824  00000-0  32091-3 0  9991,2 51993  53.2166 268.0380 0001484  68.0113 292.1037 15.08845575117624,6917.863,95.437,540.755,538.702,0.0
51993.0,STARLINK-3648,PAYLOAD,2024-04-16 14:47:31,15.08841383,0.0001772,53.2202,265.9575,77.3934,282.7257,2.9052e-05,1.74e-06,0.0,0 STARLINK-3648,1 51993U 22025AP  24107.61633535  .00000174  00000-0  29052-4 0  9998,2 51993  53.2202 265.9575 0001772  77.3934 282.7257 15.08841383116587,6917.876,95.437,540.967,538.515,0.0
51993.0,STARLINK-3648,PAYLOAD,2024-04-16 17:58:16,15.08855794,0.0001328,53.2166,265.3611,68.3686,291.7448,0.00020354,2.954e-05,0.0,0 STARLINK-3648,1 51993U 22025AP  24107.74880650  .00002954  00000-0  20354-3 0  9997,2 51993  53.2166 265.3611 0001328  68.3686 291.7448 15.08855794116608,6917.832,95.437,540.616,538.778,0.0
51993.0,STARLINK-3648,PAYLOAD,2024-04-17 09:52:09,15.08836237,0.0001256,53.2176,262.3877,86.9879,273.1256,-3.5147e-05,-8.47e-06,0.0,0 STARLINK-3648,1 51993U 22025AP  24108.41121613 -.00000847  00000-0 -35147-4 0  9997,2 51993  53.2176 262.3877 0001256  86.9879 273.1256 15.08836237117816,6917.892,95.438,540.626,538.888,0.0
51993.0,STARLINK-3648,PAYLOAD,2024-04-17 14:38:18,15.08838512,0.0001434,53.2176,261.4984,82.0766,278.0389,-4.2006e-05,-9.56e-06,0.0,0 STARLINK-3648,1 51993U 22025AP  24108.60993627 -.00000956  00000-0 -42006-4 0  9993,2 51993  53.2176 261.4984 0001434  82.0766 278.0389 15.08838512116734,6917.885,95.438,540.742,538.758,0.0
51993.0,STARLINK-3648,PAYLOAD,2024-04-17 17:49:04,15.08846531,0.0001538,53.2172,260.9043,74.2874,285.8288,-1.5129e-05,-5.29e-06,0.0,0 STARLINK-3648,1 51993U 22025AP  24108.74241341 -.00000529  00000-0 -15129-4 0  9999,2 51993  53.2172 260.9043 0001538  74.2874 285.8288 15.08846531116754,6917.86,95.437,540.789,538.661,0.0
51993.0,STARLINK-3648,PAYLOAD,2024-04-18 09:42:56,15.08834591,0.0001615,53.2185,257.932,86.4315,273.6861,6.314e-05,7.17e-06,0.0,0 STARLINK-3648,1 51993U 22025AP  24109.40482399  .00000717  00000-0  63140-4 0  9996,2 51993  53.2185 257.9320 0001615  86.4315 273.6861 15.08834591117962,6917.897,95.438,540.879,538.645,0.0
51993.0,STARLINK-3648,PAYLOAD,2024-04-18 16:04:28,15.08839083,0.000146,53.218,256.7435,77.7136,282.4019,-1.8821e-05,-5.87e-06,0.0,0 STARLINK-3648,1 51993U 22025AP  24109.66977939 -.00000587  00000-0 -18821-4 0  9996,2 51993  53.2180 256.7435 0001460  77.7136 282.4019 15.08839083116898,6917.883,95.438,540.758,538.738,0.0
51993.0,STARLINK-3648,PAYLOAD,2024-04-19 14:19:53,15.08838017,0.0001663,53.2168,252.5789,72.811,287.3064,0.00011861,1.6e-05,0.0,0 STARLINK-3648,1 51993U 22025AP  24110.59714679  .00001600  00000-0  11861-3 0  9991,2 51993  53.2168 252.5789 0001663  72.8110 287.3064 15.08838017117030,6917.886,95.438,540.902,538.601,0.0
51993.0,STARLINK-3648,PAYLOAD,2024-04-19 19:06:01,15.08858517,0.0001272,53.217,251.6823,94.528,265.5858,0.00035626,5.389e-05,0.0,0 STARLINK-3648,1 51993U 22025AP  24110.79585529  .00005389  00000-0  35626-3 0  9996,2 51993  53.2170 251.6823 0001272  94.5280 265.5858 15.08858517118179,6917.824,95.436,540.569,538.809,0.0
51993.0,STARLINK-3648,PAYLOAD,2024-04-20 12:35:18,15.08807145,0.0001708,53.2175,248.4147,21.8312,338.2752,-0.00034991,-5.848e-05,0.0,0 STARLINK-3648,1 51993U 22025AP  24111.52451814 -.00005848  00000-0 -34991-3 0  9993,2 51993  53.2175 248.4147 0001708  21.8312 338.2752 15.08807145118284,6917.981,95.44,541.027,538.664,0.0
51993.0,STARLINK-3648,PAYLOAD,2024-04-20 14:10:41,15.08805214,0.0001331,53.2168,248.1176,74.9051,285.2089,-0.00040684,-6.751e-05,0.0,0 STARLINK-3648,1 51993U 22025AP  24111.59075854 -.00006751  00000-0 -40684-3 0  9996,2 51993  53.2168 248.1176 0001331  74.9051 285.2089 15.08805214117183,6917.987,95.44,540.773,538.931,0.0
51993.0,STARLINK-3648,PAYLOAD,2024-04-20 18:56:51,15.08807888,0.0001391,53.2171,247.223,100.9023,259.2126,-0.00035716,-5.963e-05,0.0,0 STARLINK-3648,1 51993U 22025AP  24111.78947917 -.00005963  00000-0 -35716-3 0  9999,2 51993  53.2171 247.2230 0001391 100.9023 259.2126 15.08807888117219,6917.979,95.44,540.806,538.881,0.0
51993.0,STARLINK-3648,PAYLOAD,2024-04-21 14:01:27,15.08856019,0.0001981,53.2186,243.6528,117.692,242.4274,0.00019274,2.782e-05,0.0,0 STARLINK-3648,1 51993U 22025AP  24112.58434196  .00002782  00000-0  19274-3 0  9993,2 51993  53.2186 243.6528 0001981 117.6920 242.4274 15.08856019117332,6917.831,95.437,541.067,538.326,0.0
